ONEWEB-0349             
1 49281U 21090C   26196.18222003 -.00000023  00000+0 -88133-4 0  9991
2 49281  87.9187 268.8630 0002064  98.1906 261.9462 13.20769456233522
ONEWEB-0353             
1 49282U 21090D   26196.29817331  .00000178  00000+0  44468-3 0  9999
2 49282  87.8968 284.1044 0001971 107.9316 252.2029 13.14502821231275
ONEWEB-0356             
1 49283U 21090E   26196.25630185  .00000035  00000+0  52962-4 0  9997
2 49283  87.9185 268.8420 0001268  94.9661 265.1617 13.20770045233531
ONEWEB-0358             
1 49284U 21090F   26196.74702320 -.00000210  00000+0 -54784-3 0  9993
2 49284  87.9187 268.7508 0001979  96.0730 264.0629 13.20775122234329
ONEWEB-0359             
1 49285U 21090G   26196.73777241 -.00000022  00000+0 -87114-4 0  9992
2 49285  87.9189 268.7455 0002108  91.2846 268.8529 13.20769668234300
ONEWEB-0360             
1 49286U 21090H   26196.72768975  .00000011  00000+0 -53064-5 0  9991
2 49286  87.9187 268.7537 0002166  98.2753 261.8626 13.20770866233614
ONEWEB-0361             
1 49287U 21090J   26196.25461240  .00000050  00000+0  91143-4 0  9996
2 49287  87.9186 268.8468 0002032  95.5413 264.5952 13.20772697234003
ONEWEB-0362             
1 49288U 21090K   26196.83597870  .00000024  00000+0  27818-4 0  9999
2 49288  87.9187 299.2729 0002289 101.5001 258.6389 13.19726297230690
ONEWEB-0363             
1 49289U 21090L   26196.72431259 -.00000011  00000+0 -60160-4 0  9991
2 49289  87.9187 268.7531 0001737  94.9378 265.1954 13.20771872234070
ONEWEB-0364             
1 49290U 21090M   26196.76302785  .00000041  00000+0  68850-4 0  9993
2 49290  87.9183 268.7530 0002104  99.0127 261.1245 13.20769891235218
ONEWEB-0365             
1 49291U 21090N   26196.84545323  .00000100  00000+0  21790-3 0  9997
2 49291  87.9193 299.2617 0002065 102.2677 257.8688 13.19726918230206
ONEWEB-0366             
1 49292U 21090P   26196.82783108  .00000019  00000+0  16106-4 0  9996
2 49292  87.8968 284.0003 0002013  98.5602 261.5756 13.14502171231325
ONEWEB-0367             
1 49293U 21090Q   26196.26892448  .00000036  00000+0  55914-4 0  9992
2 49293  87.9186 268.8456 0002212 102.5739 257.5641 13.20772971233536
ONEWEB-0368             
1 49294U 21090R   26196.24284443  .00000068  00000+0  13539-3 0  9992
2 49294  87.9174 268.8581 0001629 117.7085 242.4214 13.20771746234681
ONEWEB-0369             
1 49295U 21090S   26196.84071556 -.00000010  00000+0 -58511-4 0  9997
2 49295  87.9188 299.2678 0002011 103.7870 256.3487 13.19726259230190
ONEWEB-0370             
1 49296U 21090T   26196.73273152  .00000018  00000+0  12085-4 0  9994
2 49296  87.9185 268.7521 0002313  94.9418 265.1980 13.20771754233630
