{"fetched_at":"2026-07-16T06:42:33.601Z","source":"https://celestrak.org/NORAD/elements/gp.php?GROUP=oneweb&FORMAT=JSON","constellation":"oneweb","records":[{"OBJECT_NAME":"ONEWEB-0349","OBJECT_ID":"2021-090C","EPOCH":"2026-07-15T04:22:23.810592","CLASSIFICATION_TYPE":"U","MEAN_MOTION":13.20769456,"ECCENTRICITY":0.00020646,"INCLINATION":87.9187,"RA_OF_ASC_NODE":268.863,"ARG_OF_PERICENTER":98.1906,"MEAN_ANOMALY":261.9462,"EPHEMERIS_TYPE":0,"NORAD_CAT_ID":49281,"ELEMENT_SET_NO":999,"REV_AT_EPOCH":23352,"BSTAR":-0.000088132655,"MEAN_MOTION_DOT":-2.3e-7,"MEAN_MOTION_DDOT":0},{"OBJECT_NAME":"ONEWEB-0353","OBJECT_ID":"2021-090D","EPOCH":"2026-07-15T07:09:22.173984","CLASSIFICATION_TYPE":"U","MEAN_MOTION":13.14502821,"ECCENTRICITY":0.00019712,"INCLINATION":87.8968,"RA_OF_ASC_NODE":284.1044,"ARG_OF_PERICENTER":107.9316,"MEAN_ANOMALY":252.2029,"EPHEMERIS_TYPE":0,"NORAD_CAT_ID":49282,"ELEMENT_SET_NO":999,"REV_AT_EPOCH":23127,"BSTAR":0.00044468021,"MEAN_MOTION_DOT":0.00000178,"MEAN_MOTION_DDOT":0},{"OBJECT_NAME":"ONEWEB-0356","OBJECT_ID":"2021-090E","EPOCH":"2026-07-15T06:09:04.479840","CLASSIFICATION_TYPE":"U","MEAN_MOTION":13.20770045,"ECCENTRICITY":0.00012689,"INCLINATION":87.9185,"RA_OF_ASC_NODE":268.842,"ARG_OF_PERICENTER":94.9661,"MEAN_ANOMALY":265.1617,"EPHEMERIS_TYPE":0,"NORAD_CAT_ID":49283,"ELEMENT_SET_NO":999,"REV_AT_EPOCH":23353,"BSTAR":0.000052961508,"MEAN_MOTION_DOT":3.5e-7,"MEAN_MOTION_DDOT":0},{"OBJECT_NAME":"ONEWEB-0358","OBJECT_ID":"2021-090F","EPOCH":"2026-07-15T17:55:42.804480","CLASSIFICATION_TYPE":"U","MEAN_MOTION":13.20775122,"ECCENTRICITY":0.00019791,"INCLINATION":87.9187,"RA_OF_ASC_NODE":268.7508,"ARG_OF_PERICENTER":96.073,"MEAN_ANOMALY":264.0629,"EPHEMERIS_TYPE":0,"NORAD_CAT_ID":49284,"ELEMENT_SET_NO":999,"REV_AT_EPOCH":23432,"BSTAR":-0.00054784296,"MEAN_MOTION_DOT":-0.0000021,"MEAN_MOTION_DDOT":0},{"OBJECT_NAME":"ONEWEB-0359","OBJECT_ID":"2021-090G","EPOCH":"2026-07-15T17:42:23.536224","CLASSIFICATION_TYPE":"U","MEAN_MOTION":13.20769668,"ECCENTRICITY":0.00021088,"INCLINATION":87.9189,"RA_OF_ASC_NODE":268.7455,"ARG_OF_PERICENTER":91.2846,"MEAN_ANOMALY":268.8529,"EPHEMERIS_TYPE":0,"NORAD_CAT_ID":49285,"ELEMENT_SET_NO":999,"REV_AT_EPOCH":23430,"BSTAR":-0.000087114083,"MEAN_MOTION_DOT":-2.2e-7,"MEAN_MOTION_DDOT":0},{"OBJECT_NAME":"ONEWEB-0360","OBJECT_ID":"2021-090H","EPOCH":"2026-07-15T17:27:52.394400","CLASSIFICATION_TYPE":"U","MEAN_MOTION":13.20770866,"ECCENTRICITY":0.00021664,"INCLINATION":87.9187,"RA_OF_ASC_NODE":268.7537,"ARG_OF_PERICENTER":98.2753,"MEAN_ANOMALY":261.8626,"EPHEMERIS_TYPE":0,"NORAD_CAT_ID":49286,"ELEMENT_SET_NO":999,"REV_AT_EPOCH":23361,"BSTAR":-0.000005306418,"MEAN_MOTION_DOT":1.1e-7,"MEAN_MOTION_DDOT":0},{"OBJECT_NAME":"ONEWEB-0361","OBJECT_ID":"2021-090J","EPOCH":"2026-07-15T06:06:38.511360","CLASSIFICATION_TYPE":"U","MEAN_MOTION":13.20772697,"ECCENTRICITY":0.00020326,"INCLINATION":87.9186,"RA_OF_ASC_NODE":268.8468,"ARG_OF_PERICENTER":95.5413,"MEAN_ANOMALY":264.5952,"EPHEMERIS_TYPE":0,"NORAD_CAT_ID":49287,"ELEMENT_SET_NO":999,"REV_AT_EPOCH":23400,"BSTAR":0.000091143071,"MEAN_MOTION_DOT":5e-7,"MEAN_MOTION_DDOT":0},{"OBJECT_NAME":"ONEWEB-0362","OBJECT_ID":"2021-090K","EPOCH":"2026-07-15T20:03:48.559680","CLASSIFICATION_TYPE":"U","MEAN_MOTION":13.19726297,"ECCENTRICITY":0.00022893,"INCLINATION":87.9187,"RA_OF_ASC_NODE":299.2729,"ARG_OF_PERICENTER":101.5001,"MEAN_ANOMALY":258.6389,"EPHEMERIS_TYPE":0,"NORAD_CAT_ID":49288,"ELEMENT_SET_NO":999,"REV_AT_EPOCH":23069,"BSTAR":0.000027817819,"MEAN_MOTION_DOT":2.4e-7,"MEAN_MOTION_DDOT":0},{"OBJECT_NAME":"ONEWEB-0363","OBJECT_ID":"2021-090L","EPOCH":"2026-07-15T17:23:00.607776","CLASSIFICATION_TYPE":"U","MEAN_MOTION":13.20771872,"ECCENTRICITY":0.00017374,"INCLINATION":87.9187,"RA_OF_ASC_NODE":268.7531,"ARG_OF_PERICENTER":94.9378,"MEAN_ANOMALY":265.1954,"EPHEMERIS_TYPE":0,"NORAD_CAT_ID":49289,"ELEMENT_SET_NO":999,"REV_AT_EPOCH":23407,"BSTAR":-0.000060159869,"MEAN_MOTION_DOT":-1.1e-7,"MEAN_MOTION_DDOT":0},{"OBJECT_NAME":"ONEWEB-0364","OBJECT_ID":"2021-090M","EPOCH":"2026-07-15T18:18:45.606240","CLASSIFICATION_TYPE":"U","MEAN_MOTION":13.20769891,"ECCENTRICITY":0.00021044,"INCLINATION":87.9183,"RA_OF_ASC_NODE":268.753,"ARG_OF_PERICENTER":99.0127,"MEAN_ANOMALY":261.1245,"EPHEMERIS_TYPE":0,"NORAD_CAT_ID":49290,"ELEMENT_SET_NO":999,"REV_AT_EPOCH":23521,"BSTAR":0.000068849943,"MEAN_MOTION_DOT":4.1e-7,"MEAN_MOTION_DDOT":0},{"OBJECT_NAME":"ONEWEB-0365","OBJECT_ID":"2021-090N","EPOCH":"2026-07-15T20:17:27.159072","CLASSIFICATION_TYPE":"U","MEAN_MOTION":13.19726918,"ECCENTRICITY":0.00020658,"INCLINATION":87.9193,"RA_OF_ASC_NODE":299.2617,"ARG_OF_PERICENTER":102.2677,"MEAN_ANOMALY":257.8688,"EPHEMERIS_TYPE":0,"NORAD_CAT_ID":49291,"ELEMENT_SET_NO":999,"REV_AT_EPOCH":23020,"BSTAR":0.00021789841,"MEAN_MOTION_DOT":0.000001,"MEAN_MOTION_DDOT":0},{"OBJECT_NAME":"ONEWEB-0366","OBJECT_ID":"2021-090P","EPOCH":"2026-07-15T19:52:04.605312","CLASSIFICATION_TYPE":"U","MEAN_MOTION":13.14502171,"ECCENTRICITY":0.00020137,"INCLINATION":87.8968,"RA_OF_ASC_NODE":284.0003,"ARG_OF_PERICENTER":98.5602,"MEAN_ANOMALY":261.5756,"EPHEMERIS_TYPE":0,"NORAD_CAT_ID":49292,"ELEMENT_SET_NO":999,"REV_AT_EPOCH":23132,"BSTAR":0.000016106037,"MEAN_MOTION_DOT":1.9e-7,"MEAN_MOTION_DDOT":0},{"OBJECT_NAME":"ONEWEB-0367","OBJECT_ID":"2021-090Q","EPOCH":"2026-07-15T06:27:15.075072","CLASSIFICATION_TYPE":"U","MEAN_MOTION":13.20772971,"ECCENTRICITY":0.00022121,"INCLINATION":87.9186,"RA_OF_ASC_NODE":268.8456,"ARG_OF_PERICENTER":102.5739,"MEAN_ANOMALY":257.5641,"EPHEMERIS_TYPE":0,"NORAD_CAT_ID":49293,"ELEMENT_SET_NO":999,"REV_AT_EPOCH":23353,"BSTAR":0.000055914373,"MEAN_MOTION_DOT":3.6e-7,"MEAN_MOTION_DDOT":0},{"OBJECT_NAME":"ONEWEB-0368","OBJECT_ID":"2021-090R","EPOCH":"2026-07-15T05:49:41.758752","CLASSIFICATION_TYPE":"U","MEAN_MOTION":13.20771746,"ECCENTRICITY":0.00016297,"INCLINATION":87.9174,"RA_OF_ASC_NODE":268.8581,"ARG_OF_PERICENTER":117.7085,"MEAN_ANOMALY":242.4214,"EPHEMERIS_TYPE":0,"NORAD_CAT_ID":49294,"ELEMENT_SET_NO":999,"REV_AT_EPOCH":23468,"BSTAR":0.00013539173,"MEAN_MOTION_DOT":6.8e-7,"MEAN_MOTION_DDOT":0},{"OBJECT_NAME":"ONEWEB-0369","OBJECT_ID":"2021-090S","EPOCH":"2026-07-15T20:10:37.824384","CLASSIFICATION_TYPE":"U","MEAN_MOTION":13.19726259,"ECCENTRICITY":0.00020112,"INCLINATION":87.9188,"RA_OF_ASC_NODE":299.2678,"ARG_OF_PERICENTER":103.787,"MEAN_ANOMALY":256.3487,"EPHEMERIS_TYPE":0,"NORAD_CAT_ID":49295,"ELEMENT_SET_NO":999,"REV_AT_EPOCH":23019,"BSTAR":-0.000058510538,"MEAN_MOTION_DOT":-1e-7,"MEAN_MOTION_DDOT":0},{"OBJECT_NAME":"ONEWEB-0370","OBJECT_ID":"2021-090T","EPOCH":"2026-07-15T17:35:08.003328","CLASSIFICATION_TYPE":"U","MEAN_MOTION":13.20771754,"ECCENTRICITY":0.00023137,"INCLINATION":87.9185,"RA_OF_ASC_NODE":268.7521,"ARG_OF_PERICENTER":94.9418,"MEAN_ANOMALY":265.198,"EPHEMERIS_TYPE":0,"NORAD_CAT_ID":49296,"ELEMENT_SET_NO":999,"REV_AT_EPOCH":23363,"BSTAR":0.000012084868,"MEAN_MOTION_DOT":1.8e-7,"MEAN_MOTION_DDOT":0}]}
